CCSDS_OMM_VERS,COMMENT,CREATION_DATE,ORIGINATOR,OBJECT_NAME,OBJECT_ID,CENTER_NAME,REF_FRAME,TIME_SYSTEM,MEAN_ELEMENT_THEORY,EPOCH,MEAN_MOTION,ECCENTRICITY,INCLINATION,RA_OF_ASC_NODE,ARG_OF_PERICENTER,MEAN_ANOMALY,EPHEMERIS_TYPE,CLASSIFICATION_TYPE,NORAD_CAT_ID,ELEMENT_SET_NO,REV_AT_EPOCH,BSTAR,MEAN_MOTION_DOT,MEAN_MOTION_DDOT,SEMIMAJOR_AXIS,PERIOD,APOAPSIS,PERIAPSIS,OBJECT_TYPE,RCS_SIZE,COUNTRY_CODE,LAUNCH_DATE,SITE,DECAY_DATE,FILE,GP_ID,TLE_LINE0,TLE_LINE1,TLE_LINE2
2,GENERATED VIA SPACE-TRACK.ORG API,2016-08-14T15:58:41,18 SPCS,BREEZE-M R/B,2000-029B,EARTH,TEME,UTC,SGP4,2016-08-13T10:03:54.292032,1.00385522,0.027098,11.2661,34.5258,243.5868,120.6334,0,U,26373,999,5936,0.0,-3.31e-06,0,42132.877,1434.469,36896.459,34613.025,ROCKET BODY,LARGE,CIS,2000-06-06,TTMTR,,2071992,106545979,0 BREEZE-M R/B,1 26373U 00029B   16226.41937838 -.00000331 +00000-0 +00000-0 0  9990,2 26373 011.2661 034.5258 0270980 243.5868 120.6334 01.00385522059367
2,GENERATED VIA SPACE-TRACK.ORG API,2016-08-19T14:14:21,18 SPCS,BREEZE-M R/B,2000-029B,EARTH,TEME,UTC,SGP4,2016-08-19T10:52:52.801824,1.00383588,0.0270981,11.2729,34.4652,243.7663,141.1407,0,U,26373,999,5941,0.0,-3.28e-06,0,42133.418,1434.497,36897.019,34613.548,ROCKET BODY,LARGE,CIS,2000-06-06,TTMTR,,2075130,106650703,0 BREEZE-M R/B,1 26373U 00029B   16232.45338891 -.00000328  00000-0  00000+0 0  9990,2 26373  11.2729  34.4652 0270981 243.7663 141.1407  1.00383588 59410
2,GENERATED VIA SPACE-TRACK.ORG API,2016-08-22T15:50:44,18 SPCS,BREEZE-M R/B,2000-029B,EARTH,TEME,UTC,SGP4,2016-08-21T09:04:14.530944,1.00382934,0.0270975,11.275,34.4458,243.8185,116.6128,0,U,26373,999,5944,0.0,-3.37e-06,0,42133.601,1434.506,36897.181,34613.751,ROCKET BODY,LARGE,CIS,2000-06-06,TTMTR,,2076550,106711907,0 BREEZE-M R/B,1 26373U 00029B   16234.37794596 -.00000337 +00000-0 +00000-0 0  9992,2 26373 011.2750 034.4458 0270975 243.8185 116.6128 01.00382934059445
2,GENERATED VIA SPACE-TRACK.ORG API,2016-08-25T11:32:22,18 SPCS,BREEZE-M R/B,2000-029B,EARTH,TEME,UTC,SGP4,2016-08-25T07:41:55.513824,1.00381561,0.0270956,11.2794,34.4061,243.9155,101.4217,0,U,26373,999,5947,0.0,-3.65e-06,0,42133.985,1434.526,36897.496,34614.205,ROCKET BODY,LARGE,CIS,2000-06-06,TTMTR,,2077716,106758218,0 BREEZE-M R/B,1 26373U 00029B   16238.32078141 -.00000365  00000-0  00000+0 0  9992,2 26373  11.2794  34.4061 0270956 243.9155 101.4217  1.00381561 59479
2,GENERATED VIA SPACE-TRACK.ORG API,2016-08-28T14:24:34,18 SPCS,BREEZE-M R/B,2000-029B,EARTH,TEME,UTC,SGP4,2016-08-28T09:35:11.566752,1.00380457,0.027097,11.2828,34.3749,243.986,133.9378,0,U,26373,999,5950,0.0,-3.85e-06,0,42134.294,1434.542,36897.872,34614.446,ROCKET BODY,LARGE,CIS,2000-06-06,TTMTR,,2079034,106814877,0 BREEZE-M R/B,1 26373U 00029B   16241.39943943 -.00000385  00000-0  00000+0 0  9996,2 26373  11.2828  34.3749 0270970 243.9860 133.9378  1.00380457 59503
2,GENERATED VIA SPACE-TRACK.ORG API,2016-08-30T15:30:14,18 SPCS,BREEZE-M R/B,2000-029B,EARTH,TEME,UTC,SGP4,2016-08-29T08:39:41.383296,1.00380085,0.0270985,11.2839,34.3653,244.0081,121.3698,0,U,26373,999,5952,0.0,-3.88e-06,0,42134.398,1434.547,36898.042,34614.484,ROCKET BODY,LARGE,CIS,2000-06-06,TTMTR,,2079946,106857964,0 BREEZE-M R/B,1 26373U 00029B   16242.36089564 -.00000388 +00000-0 +00000-0 0  9998,2 26373 011.2839 034.3653 0270985 244.0081 121.3698 01.00380085059527
2,GENERATED VIA SPACE-TRACK.ORG API,2016-08-31T16:17:57,18 SPCS,BREEZE-M R/B,2000-029B,EARTH,TEME,UTC,SGP4,2016-08-30T07:33:37.316736,1.00379712,0.0271002,11.285,34.3557,244.0312,106.148,0,U,26373,999,5952,0.0,-3.9e-06,0,42134.503,1434.552,36898.221,34614.514,ROCKET BODY,LARGE,CIS,2000-06-06,TTMTR,,2080438,106878409,0 BREEZE-M R/B,1 26373U 00029B   16243.31501524 -.00000390 +00000-0 +00000-0 0  9992,2 26373 011.2850 034.3557 0271002 244.0312 106.1480 01.00379712059526
2,GENERATED VIA SPACE-TRACK.ORG API,2016-09-02T06:24:41,18 SPCS,BREEZE-M R/B,2000-029B,EARTH,TEME,UTC,SGP4,2016-09-02T05:05:38.095008,1.00378632,0.0271081,11.2884,34.3269,244.1016,73.0783,0,U,26373,999,5955,0.0,-3.9e-06,0,42134.805,1434.568,36898.864,34614.475,ROCKET BODY,LARGE,CIS,2000-06-06,TTMTR,,2081055,106905369,0 BREEZE-M R/B,1 26373U 00029B   16246.21224647 -.00000390  00000-0  00000+0 0  9991,2 26373  11.2884  34.3269 0271081 244.1016  73.0783  1.00378632 59553
2,GENERATED VIA SPACE-TRACK.ORG API,2016-09-04T15:16:03,18 SPCS,BREEZE-M R/B,2000-029B,EARTH,TEME,UTC,SGP4,2016-09-03T11:49:18.472224,1.00378144,0.0271112,11.2898,34.3142,244.1381,175.7223,0,U,26373,999,5957,0.0,-3.86e-06,0,42134.942,1434.575,36899.135,34614.478,ROCKET BODY,LARGE,CIS,2000-06-06,TTMTR,,2082108,106947196,0 BREEZE-M R/B,1 26373U 00029B   16247.49257491 -.00000386 +00000-0 +00000-0 0  9991,2 26373 011.2898 034.3142 0271112 244.1381 175.7223 01.00378144059577
2,GENERATED VIA SPACE-TRACK.ORG API,2016-09-04T14:28:42,18 SPCS,BREEZE-M R/B,2000-029B,EARTH,TEME,UTC,SGP4,2016-09-04T09:34:51.390624,1.00377803,0.0271139,11.2908,34.3053,244.1625,143.3318,0,U,26373,999,5957,0.0,-3.82e-06,0,42135.037,1434.58,36899.347,34614.457,ROCKET BODY,LARGE,CIS,2000-06-06,TTMTR,,2082039,106941005,0 BREEZE-M R/B,1 26373U 00029B   16248.39920591 -.00000382  00000-0  00000+0 0  9994,2 26373  11.2908  34.3053 0271139 244.1625 143.3318  1.00377803 59577
2,GENERATED VIA SPACE-TRACK.ORG API,2016-09-06T15:40:55,18 SPCS,BREEZE-M R/B,2000-029B,EARTH,TEME,UTC,SGP4,2016-09-05T08:00:40.936896,1.0037745,0.0271167,11.2919,34.296,244.1885,121.0462,0,U,26373,999,5959,0.0,-3.78e-06,0,42135.136,1434.585,36899.567,34614.435,ROCKET BODY,LARGE,CIS,2000-06-06,TTMTR,,2082897,106981973,0 BREEZE-M R/B,1 26373U 00029B   16249.33380714 -.00000378 +00000-0 +00000-0 0  9992,2 26373 011.2919 034.2960 0271167 244.1885 121.0462 01.00377450059597
2,GENERATED VIA SPACE-TRACK.ORG API,2016-09-07T16:18:28,18 SPCS,BREEZE-M R/B,2000-029B,EARTH,TEME,UTC,SGP4,2016-09-06T09:00:10.012896,1.00377078,0.0271197,11.2931,34.2857,244.2179,137.3179,0,U,26373,999,5960,0.0,-3.73e-06,0,42135.24,1434.59,36899.8,34614.41,ROCKET BODY,LARGE,CIS,2000-06-06,TTMTR,,2083440,107003502,0 BREEZE-M R/B,1 26373U 00029B   16250.37511589 -.00000373 +00000-0 +00000-0 0  9999,2 26373 011.2931 034.2857 0271197 244.2179 137.3179 01.00377078059609
2,GENERATED VIA SPACE-TRACK.ORG API,2016-09-07T14:25:19,18 SPCS,BREEZE-M R/B,2000-029B,EARTH,TEME,UTC,SGP4,2016-09-07T05:31:24.508128,1.00376748,0.0271216,11.2941,34.2771,244.2434,86.2748,0,U,26373,999,5960,0.0,-3.68e-06,0,42135.332,1434.595,36899.975,34614.42,ROCKET BODY,LARGE,CIS,2000-06-06,TTMTR,,2083302,106995505,0 BREEZE-M R/B,1 26373U 00029B   16251.23014477 -.00000368  00000-0  00000+0 0  9992,2 26373  11.2941  34.2771 0271216 244.2434  86.2748  1.00376748 59608
2,GENERATED VIA SPACE-TRACK.ORG API,2016-09-09T16:40:58,18 SPCS,BREEZE-M R/B,2000-029B,EARTH,TEME,UTC,SGP4,2016-09-08T10:20:07.782432,1.00376306,0.0271239,11.2955,34.2652,244.2805,160.0626,0,U,26373,999,5962,0.0,-3.61e-06,0,42135.456,1434.601,36900.199,34614.443,ROCKET BODY,LARGE,CIS,2000-06-06,TTMTR,,2084316,107039635,0 BREEZE-M R/B,1 26373U 00029B   16252.43064563 -.00000361 +00000-0 +00000-0 0  9990,2 26373 011.2955 034.2652 0271239 244.2805 160.0626 01.00376306059626
2,GENERATED VIA SPACE-TRACK.ORG API,2016-09-09T14:15:37,18 SPCS,BREEZE-M R/B,2000-029B,EARTH,TEME,UTC,SGP4,2016-09-09T07:20:36.852576,1.00375991,0.0271252,11.2966,34.2565,244.3063,116.3563,0,U,26373,999,5962,0.0,-3.57e-06,0,42135.544,1434.606,36900.344,34614.474,ROCKET BODY,LARGE,CIS,2000-06-06,TTMTR,,2084189,107032037,0 BREEZE-M R/B,1 26373U 00029B   16253.30598209 -.00000357  00000-0  00000+0 0  9990,2 26373  11.2966  34.2565 0271252 244.3063 116.3563  1.00375991 59626
2,GENERATED VIA SPACE-TRACK.ORG API,2016-09-11T15:34:02,18 SPCS,BREEZE-M R/B,2000-029B,EARTH,TEME,UTC,SGP4,2016-09-10T07:17:47.641632,1.00375615,0.0271267,11.2977,34.2466,244.3369,116.985,0,U,26373,999,5964,0.0,-3.52e-06,0,42135.649,1434.611,36900.515,34614.513,ROCKET BODY,LARGE,CIS,2000-06-06,TTMTR,,2085146,107073270,0 BREEZE-M R/B,1 26373U 00029B   16254.30402363 -.00000352 +00000-0 +00000-0 0  9992,2 26373 011.2977 034.2466 0271267 244.3369 116.9850 01.00375615059643
2,GENERATED VIA SPACE-TRACK.ORG API,2016-09-12T15:18:24,18 SPCS,BREEZE-M R/B,2000-029B,EARTH,TEME,UTC,SGP4,2016-09-11T05:16:27.628608,1.00375279,0.0271276,11.2988,34.2374,244.3653,87.8743,0,U,26373,999,5964,0.0,-3.48e-06,0,42135.743,1434.616,36900.65,34614.567,ROCKET BODY,LARGE,CIS,2000-06-06,TTMTR,,2085538,107090525,0 BREEZE-M R/B,1 26373U 00029B   16255.21976422 -.00000348 +00000-0 +00000-0 0  9990,2 26373 011.2988 034.2374 0271276 244.3653 087.8743 01.00375279059642
2,GENERATED VIA SPACE-TRACK.ORG API,2016-09-12T14:25:52,18 SPCS,BREEZE-M R/B,2000-029B,EARTH,TEME,UTC,SGP4,2016-09-12T05:28:03.062208,1.00374902,0.0271285,11.2999,34.2275,244.3966,92.1161,0,U,26373,999,5965,0.0,-3.45e-06,0,42135.849,1434.621,36900.796,34614.631,ROCKET BODY,LARGE,CIS,2000-06-06,TTMTR,,2085458,107083841,0 BREEZE-M R/B,1 26373U 00029B   16256.22781322 -.00000345  00000-0  00000+0 0  9991,2 26373  11.2999  34.2275 0271285 244.3966  92.1161  1.00374902 59657
2,GENERATED VIA SPACE-TRACK.ORG API,2016-09-14T15:17:05,18 SPCS,BREEZE-M R/B,2000-029B,EARTH,TEME,UTC,SGP4,2016-09-13T07:12:54.547776,1.00374507,0.0271293,11.3011,34.2168,244.4297,119.7604,0,U,26373,999,5967,0.0,-3.43e-06,0,42135.959,1434.627,36900.943,34614.705,ROCKET BODY,LARGE,CIS,2000-06-06,TTMTR,,2086394,107126134,0 BREEZE-M R/B,1 26373U 00029B   16257.30063134 -.00000343 +00000-0 +00000-0 0  9994,2 26373 011.3011 034.2168 0271293 244.4297 119.7604 01.00374507059672
2,GENERATED VIA SPACE-TRACK.ORG API,2016-09-14T14:25:16,18 SPCS,BREEZE-M R/B,2000-029B,EARTH,TEME,UTC,SGP4,2016-09-14T07:34:58.594944,1.00374133,0.0271293,11.3023,34.2067,244.4611,126.6291,0,U,26373,999,5967,0.0,-3.43e-06,0,42136.064,1434.632,36901.051,34614.807,ROCKET BODY,LARGE,CIS,2000-06-06,TTMTR,,2086318,107119471,0 BREEZE-M R/B,1 26373U 00029B   16258.31595596 -.00000343  00000-0  00000+0 0  9997,2 26373  11.3023  34.2067 0271293 244.4611 126.6291  1.00374133 59677
